NORAD_CAT_ID,OBJECT_NAME,OBJECT_TYPE,EPOCH,MEAN_MOTION,ECCENTRICITY,INCLINATION,RA_OF_ASC_NODE,ARG_OF_PERICENTER,MEAN_ANOMALY,BSTAR,MEAN_MOTION_DOT,MEAN_MOTION_DDOT,TLE_LINE0,TLE_LINE1,TLE_LINE2,SEMIMAJOR_AXIS,PERIOD,APOGEE,PERIGEE,DECAYED
53775.0,STARLINK-4722,PAYLOAD,2024-08-18 11:42:09,15.08847457,0.0001491,53.2172,305.116,83.2099,276.9063,0.00028269,4.215e-05,0.0,0 STARLINK-4722,1 53775U 22111C   24231.48760611  .00004215  00000-0  28269-3 0  9991,2 53775  53.2172 305.1160 0001491  83.2099 276.9063 15.08847457107102,6917.858,95.437,540.754,538.691,0.0
53775.0,STARLINK-4722,PAYLOAD,2024-08-19 05:11:23,15.08844156,0.0001566,53.217,301.8459,86.6428,273.4744,0.00015698,2.211e-05,0.0,0 STARLINK-4722,1 53775U 22111C   24232.21624583  .00002211  00000-0  15698-3 0  9996,2 53775  53.2170 301.8459 0001566  86.6428 273.4744 15.08844156107213,6917.868,95.437,540.816,538.649,0.0
53775.0,STARLINK-4722,PAYLOAD,2024-08-19 11:32:56,15.08833069,0.0001403,53.2165,300.6522,91.9361,268.1792,1.0258e-05,-1.25e-06,0.0,0 STARLINK-4722,1 53775U 22111C   24232.48121049 -.00000125  00000-0  10258-4 0  9995,2 53775  53.2165 300.6522 0001403  91.9361 268.1792 15.08833069107259,6917.902,95.438,540.737,538.796,0.0
53775.0,STARLINK-4722,PAYLOAD,2024-08-20 08:12:56,15.08843338,0.0001339,53.2157,296.7858,88.2058,271.9087,5.1218e-05,5.27e-06,0.0,0 STARLINK-4722,1 53775U 22111C   24233.34232578  .00000527  00000-0  51218-4 0  9997,2 53775  53.2157 296.7858 0001339  88.2058 271.9087 15.08843338107380,6917.87,95.437,540.661,538.809,0.0
53775.0,STARLINK-4722,PAYLOAD,2024-08-21 09:39:07,15.08837377,0.0001345,53.2154,292.0278,89.9627,270.152,0.00014418,2.007e-05,0.0,0 STARLINK-4722,1 53775U 22111C   24234.40216997  .00002007  00000-0  14418-3 0  9997,2 53775  53.2154 292.0278 0001345  89.9627 270.1520 15.08837377107546,6917.888,95.438,540.684,538.823,0.0
53775.0,STARLINK-4722,PAYLOAD,2024-08-21 20:46:49,15.08838693,0.0001385,53.2154,289.9469,82.3818,277.7331,7.5214e-05,9.09e-06,0.0,0 STARLINK-4722,1 53775U 22111C   24234.86585048  .00000909  00000-0  75214-4 0  9994,2 53775  53.2154 289.9469 0001385  82.3818 277.7331 15.08838693108429,6917.884,95.438,540.708,538.791,0.0
